NORAD_CAT_ID,OBJECT_NAME,OBJECT_TYPE,EPOCH,MEAN_MOTION,ECCENTRICITY,INCLINATION,RA_OF_ASC_NODE,ARG_OF_PERICENTER,MEAN_ANOMALY,BSTAR,MEAN_MOTION_DOT,MEAN_MOTION_DDOT,TLE_LINE0,TLE_LINE1,TLE_LINE2,SEMIMAJOR_AXIS,PERIOD,APOGEE,PERIGEE,DECAYED
53006.0,STARLINK-4290,PAYLOAD,2022-09-07 22:00:00,15.27293036,0.0001691,53.2176,75.2351,48.9456,117.7127,-0.042769,-0.01062323,0.0,0 STARLINK-4290,1 53006U 22076W   22250.91667824 -.01062323  00000-0 -42769-1 0  9993,2 53006  53.2176  75.2351 0001691  48.9456 117.7127 15.27293036 10269,6862.045999999999,94.284,485.071,482.75,0.0
53006.0,STARLINK-4290,PAYLOAD,2022-09-08 14:00:01,15.25775156,0.0001447,53.2177,72.1615,66.4296,165.9277,-0.0448519999999999,-0.01063552,0.0,0 STARLINK-4290,1 53006U 22076W   22251.58334491 -.01063552  00000-0 -44852-1 0  9998,2 53006  53.2177  72.1615 0001447  66.4296 165.9277 15.25775156  1307,6866.596,94.378,489.454,487.467,0.0
53006.0,STARLINK-4290,PAYLOAD,2022-09-08 22:00:00,15.25014135,0.0001349,53.2176,70.6296,75.6432,188.194,-0.045773,-0.01060899,0.0,0 STARLINK-4290,1 53006U 22076W   22251.91667824 -.01060899  00000-0 -45773-1 0  9998,2 53006  53.2176  70.6296 0001349  75.6432 188.1940 15.25014135 10418,6868.88,94.425,491.672,489.818,0.0
53006.0,STARLINK-4290,PAYLOAD,2022-09-09 14:00:01,15.23497516,0.0001334,53.2177,67.5666,59.9416,264.1182,-0.04809,-0.01064603,0.0,0 STARLINK-4290,1 53006U 22076W   22252.58334491 -.01064603  00000-0 -48090-1 0  9995,2 53006  53.2177  67.5666 0001334  59.9416 264.1182 15.23497516  1303,6873.438,94.519,496.22,494.386,0.0
53006.0,STARLINK-4290,PAYLOAD,2022-09-09 20:00:01,15.22926946,0.0001517,53.2176,66.4218,59.7128,195.9889,-0.0488399999999999,-0.0106311,0.0,0 STARLINK-4290,1 53006U 22076W   22252.83334491 -.01063110  00000-0 -48840-1 0  9998,2 53006  53.2176  66.4218 0001517  59.7128 195.9889 15.22926946 10559,6875.154,94.555,498.062,495.977,0.0
53006.0,STARLINK-4290,PAYLOAD,2022-09-09 22:00:00,15.22736214,0.0001384,53.2175,66.0401,53.3883,299.4137,-0.049052,-0.01061765,0.0,0 STARLINK-4290,1 53006U 22076W   22252.91667824 -.01061765  00000-0 -49052-1 0  9996,2 53006  53.2175  66.0401 0001384  53.3883 299.4137 15.22736214  1304,6875.729,94.567,498.545,496.642,0.0
53006.0,STARLINK-4290,PAYLOAD,2022-09-10 14:00:01,15.21219401,0.0001349,53.2177,62.9881,57.8654,349.6833,-0.0515049999999999,-0.01065485,0.0,0 STARLINK-4290,1 53006U 22076W   22253.58334491 -.01065485  00000-0 -51505-1 0  9990,2 53006  53.2177  62.9881 0001349  57.8654 349.6833 15.21219401 10662,6880.2980000000025,94.661,503.092,501.235,0.0
53006.0,STARLINK-4290,PAYLOAD,2022-09-10 22:00:00,15.20456166,0.0001299,53.2174,61.4666,66.6532,6.9005,-0.052345,-0.01059332,0.0,0 STARLINK-4290,1 53006U 22076W   22253.91667824 -.01059332  00000-0 -52345-1 0  9993,2 53006  53.2174  61.4666 0001299  66.6532   6.9005 15.20456166  1306,6882.601,94.708,505.36,503.572,0.0
53006.0,STARLINK-4290,PAYLOAD,2022-09-11 14:00:01,15.18939904,0.0001379,53.2176,58.4252,71.4848,51.3394,-0.0549789999999999,-0.01063944,0.0,0 STARLINK-4290,1 53006U 22076W   22254.58334491 -.01063944  00000-0 -54979-1 0  9997,2 53006  53.2176  58.4252 0001379  71.4848  51.3394 15.18939904  1306,6887.18,94.803,509.995,508.095,0.0
53006.0,STARLINK-4290,PAYLOAD,2022-09-11 22:00:00,15.18176199,0.0001419,53.2174,56.909,68.7238,77.3676,-0.055794,-0.0105667,0.0,0 STARLINK-4290,1 53006U 22076W   22254.91667824 -.01056670  00000-0 -55794-1 0  9997,2 53006  53.2174  56.9090 0001419  68.7238  77.3676 15.18176199  1304,6889.49,94.851,512.332,510.377,0.0
53006.0,STARLINK-4290,PAYLOAD,2022-09-12 12:00:00,15.16849923,0.0001440999999999,53.2176,54.2562,60.2723,34.3389,-0.0582419999999999,-0.01074616,0.0,0 STARLINK-4290,1 53006U 22076W   22255.50001157 -.01074616  00000-0 -58242-1 0  9995,2 53006  53.2176  54.2562 0001441  60.2723  34.3389 15.16849923 10957,6893.505,94.934,516.363,514.377,0.0
53006.0,STARLINK-4290,PAYLOAD,2022-09-12 14:00:01,15.16660052,0.0001528,53.2177,53.8785,63.871,126.0146,-0.0585799999999999,-0.01074957,0.0,0 STARLINK-4290,1 53006U 22076W   22255.58334491 -.01074957  00000-0 -58580-1 0  9996,2 53006  53.2177  53.8785 0001528  63.8710 126.0146 15.16660052  1304,6894.08,94.945,516.999,514.8919999999998,0.0
53006.0,STARLINK-4290,PAYLOAD,2022-09-12 22:00:00,15.15897944,0.000152,53.2173,52.3674,61.6646,148.7495,-0.059572,-0.0106992,0.0,0 STARLINK-4290,1 53006U 22076W   22255.91667824 -.01069920  00000-0 -59572-1 0  9998,2 53006  53.2173  52.3674 0001520  61.6646 148.7495 15.15897944  1306,6896.391,94.993,519.304,517.2080000000002,0.0
53006.0,STARLINK-4290,PAYLOAD,2022-09-13 06:00:00,15.15139705,0.0001402,53.2174,50.8553,73.0965,156.9341,-0.061021,-0.01072268,0.0,0 STARLINK-4290,1 53006U 22076W   22256.25001157 -.01072268  00000-0 -61021-1 0  9998,2 53006  53.2174  50.8553 0001402  73.0965 156.9341 15.15139705 11076,6898.691,95.041,521.524,519.589,0.0
53006.0,STARLINK-4290,PAYLOAD,2022-09-13 14:00:01,15.14380876,0.0001426,53.2176,49.3477,72.5163,176.2163,-0.062422,-0.0107339,0.0,0 STARLINK-4290,1 53006U 22076W   22256.58334491 -.01073390  00000-0 -62422-1 0  9997,2 53006  53.2176  49.3477 0001426  72.5163 176.2163 15.14380876  1304,6900.996,95.088,523.845,521.877,0.0
53006.0,STARLINK-4290,PAYLOAD,2022-09-13 22:00:00,15.13621,0.000138,53.2173,47.8418,69.1723,197.3503,-0.0637,-0.01072139,0.0,0 STARLINK-4290,1 53006U 22076W   22256.91667824 -.01072139  00000-0 -63700-1 0  9993,2 53006  53.2173  47.8418 0001380  69.1723 197.3503 15.13621000  1300,6903.305,95.136,526.123,524.2180000000002,0.0
53006.0,STARLINK-4290,PAYLOAD,2022-09-14 06:00:00,15.128603899999998,0.0001306,53.2174,46.3349,74.6935,208.7084,-0.064999,-0.01070876,0.0,0 STARLINK-4290,1 53006U 22076W   22257.25001157 -.01070876  00000-0 -64999-1 0  9999,2 53006  53.2174  46.3349 0001306  74.6935 208.7084 15.12860390 11221,6905.619000000002,95.184,528.386,526.582,0.0
53006.0,STARLINK-4290,PAYLOAD,2022-09-14 14:00:01,15.12102294,0.0001334,53.2175,44.8327,73.1153,226.2503,-0.066534,-0.01072922,0.0,0 STARLINK-4290,1 53006U 22076W   22257.58334491 -.01072922  00000-0 -66534-1 0  9996,2 53006  53.2175  44.8327 0001334  73.1153 226.2503 15.12102294  1309,6907.927,95.232,530.7130000000002,528.87,0.0
53006.0,STARLINK-4290,PAYLOAD,2022-09-14 22:00:00,15.11320684,0.0001190999999999,53.2167,43.3306,66.4577,247.9704,-0.0657809999999999,-0.01040302,0.0,0 STARLINK-4290,1 53006U 22076W   22257.91667824 -.01040302  00000-0 -65781-1 0  9992,2 53006  53.2167  43.3306 0001191  66.4577 247.9704 15.11320684  1304,6910.308000000001,95.281,532.996,531.35,0.0
53006.0,STARLINK-4290,PAYLOAD,2022-09-15 06:00:00,15.10665502,0.0001252999999999,53.217,41.82899999999999,60.8979,267.6154,-0.07664,-0.01178147,0.0,0 STARLINK-4290,1 53006U 22076W   22258.25001157 -.01178147  00000-0 -76640-1 0  9996,2 53006  53.2170  41.8290 0001253  60.8979 267.6154 15.10665502 11372,6912.306,95.322,535.0369999999998,533.305,0.0
53006.0,STARLINK-4290,PAYLOAD,2022-09-15 14:00:01,15.09774525,0.0001236,53.2172,40.3314,84.0559,257.7283,-0.059898,-0.00905757,0.0,0 STARLINK-4290,1 53006U 22076W   22258.58334491 -.00905757  00000-0 -59898-1 0  9992,2 53006  53.2172  40.3314 0001236  84.0559 257.7283 15.09774525  1307,6915.025,95.378,537.745,536.036,0.0
53006.0,STARLINK-4290,PAYLOAD,2022-09-15 22:00:00,15.0902742,0.0001341999999999,53.2172,38.8366,87.7091,266.4034,-0.018086,-0.00278594,0.0,0 STARLINK-4290,1 53006U 22076W   22258.91667824 -.00278594  00000-0 -18086-1 0  9994,2 53006  53.2172  38.8366 0001342  87.7091 266.4034 15.09027420  1301,6917.308000000001,95.426,540.101,538.244,0.0
53006.0,STARLINK-4290,PAYLOAD,2022-09-16 02:00:01,15.08833356,0.0001423,53.2173,38.087,68.6033,111.4102,0.00025852,3.828e-05,0.0,0 STARLINK-4290,1 53006U 22076W   22259.08334491  .00003828  00000-0  25852-3 0  9999,2 53006  53.2173  38.0870 0001423  68.6033 111.4102 15.08833356 11508,6917.901,95.438,540.75,538.781,0.0
53006.0,STARLINK-4290,PAYLOAD,2022-09-16 14:00:01,15.08888076,0.0001626,53.2163,35.8337,64.0627,313.3363,-0.0010083,-0.0001631999999999,0.0,0 STARLINK-4290,1 53006U 22076W   22259.58334491 -.00016320  00000-0 -10083-2 0  9996,2 53006  53.2163  35.8337 0001626  64.0627 313.3363 15.08888076  1302,6917.733,95.435,540.7230000000002,538.474,0.0
53006.0,STARLINK-4290,PAYLOAD,2022-09-16 16:00:00,15.08881298,0.0001681,53.2164,35.4599,62.4638,47.843,-0.0010706,-0.00017306,0.0,0 STARLINK-4290,1 53006U 22076W   22259.66667824 -.00017306  00000-0 -10706-2 0  9991,2 53006  53.2164  35.4599 0001681  62.4638  47.8430 15.08881298 11599,6917.754,95.435,540.7819999999998,538.456,0.0
53006.0,STARLINK-4290,PAYLOAD,2022-09-16 22:00:00,15.08896944,0.0001636999999999,53.2163,34.3376,57.4991,331.5319,-0.0043659,-0.00069212,0.0,0 STARLINK-4290,1 53006U 22076W   22259.91667824 -.00069212  00000-0 -43659-2 0  9995,2 53006  53.2163  34.3376 0001637  57.4991 331.5319 15.08896944  1307,6917.706,95.434,540.7040000000002,538.439,0.0
53006.0,STARLINK-4290,PAYLOAD,2022-09-17 08:00:01,15.08809892,0.0001556,53.2168,32.4654,67.3343,66.1834,0.0023016,0.00036502,0.0,0 STARLINK-4290,1 53006U 22076W   22260.33334491  .00036502  00000-0  23016-2 0  9993,2 53006  53.2168  32.4654 0001556  67.3343  66.1834 15.08809892 11693,6917.972,95.439,540.914,538.761,0.0
53006.0,STARLINK-4290,PAYLOAD,2022-09-17 14:00:01,15.08839292,0.0001651,53.2168,31.3446,61.621,350.5737,-0.0012277999999999,-0.00019775,0.0,0 STARLINK-4290,1 53006U 22076W   22260.58334491 -.00019775  00000-0 -12278-2 0  9993,2 53006  53.2168  31.3446 0001651  61.6210 350.5737 15.08839292  1302,6917.8830000000025,95.438,540.89,538.605,0.0
53006.0,STARLINK-4290,PAYLOAD,2022-09-17 22:00:00,15.08840654,0.0001674,53.2167,29.8484,56.6497,7.1307,0.00056692,8.746e-05,0.0,0 STARLINK-4290,1 53006U 22076W   22260.91667824  .00008746  00000-0  56692-3 0  9992,2 53006  53.2167  29.8484 0001674  56.6497   7.1307 15.08840654  1303,6917.878000000002,95.438,540.901,538.585,0.0
